NORAD_CAT_ID,OBJECT_NAME,OBJECT_TYPE,EPOCH,MEAN_MOTION,ECCENTRICITY,INCLINATION,RA_OF_ASC_NODE,ARG_OF_PERICENTER,MEAN_ANOMALY,BSTAR,MEAN_MOTION_DOT,MEAN_MOTION_DDOT,TLE_LINE0,TLE_LINE1,TLE_LINE2,SEMIMAJOR_AXIS,PERIOD,APOGEE,PERIGEE,DECAYED
53637.0,STARLINK-4396,PAYLOAD,2024-08-14 20:18:39,15.08863692,0.0001293,53.2147,271.4126,126.4625,233.6487,0.00085264,0.00013317,0.0,0 STARLINK-4396,1 53637U 22104BB  24227.84629104  .00013317  00000-0  85264-3 0  9997,2 53637  53.2147 271.4126 0001293 126.4625 233.6487 15.08863692109890,6917.808,95.436,540.567,538.779,0.0
53637.0,STARLINK-4396,PAYLOAD,2024-08-15 09:01:43,15.08876295,0.0001258,53.2146,269.034,125.8064,234.3045,0.00080175,0.00012508,0.0,0 STARLINK-4396,1 53637U 22104BB  24228.37620015  .00012508  00000-0  80175-3 0  9995,2 53637  53.2146 269.0340 0001258 125.8064 234.3045 15.08876295109971,6917.769,95.435,540.505,538.764,0.0
53637.0,STARLINK-4396,PAYLOAD,2024-08-15 20:09:25,15.08867466,0.000126,53.2146,266.9507,128.2856,231.825,0.00040708,6.202e-05,0.0,0 STARLINK-4396,1 53637U 22104BB  24228.83987400  .00006202  00000-0  40708-3 0  9992,2 53637  53.2146 266.9507 0001260 128.2856 231.8250 15.08867466109027,6917.796,95.436,540.533,538.79,0.0
53637.0,STARLINK-4396,PAYLOAD,2024-08-16 08:52:29,15.08856963,0.0001335,53.2149,264.5729,128.2911,231.8201,0.00018814,2.709e-05,0.0,0 STARLINK-4396,1 53637U 22104BB  24229.36979163  .00002709  00000-0  18814-3 0  9999,2 53637  53.2149 264.5729 0001335 128.2911 231.8201 15.08856963109100,6917.829,95.436,540.617,538.77,0.0
53637.0,STARLINK-4396,PAYLOAD,2024-08-17 02:21:44,15.08850195,0.0001249,53.2156,261.3028,106.7626,253.3503,0.00018116,2.597e-05,0.0,0 STARLINK-4396,1 53637U 22104BB  24230.09843097  .00002597  00000-0  18116-3 0  9997,2 53637  53.2156 261.3028 0001249 106.7626 253.3503 15.08850195109210,6917.849,95.437,540.578,538.85,0.0
53637.0,STARLINK-4396,PAYLOAD,2024-08-17 07:07:53,15.08853892,0.0001156,53.2133,260.4084,129.5512,230.5582,-2.0592e-05,-6.16e-06,0.0,0 STARLINK-4396,1 53637U 22104BB  24230.29714693 -.00000616  00000-0 -20592-4 0  9992,2 53637  53.2133 260.4084 0001156 129.5512 230.5582 15.08853892110269,6917.838,95.437,540.503,538.903,0.0
53637.0,STARLINK-4396,PAYLOAD,2024-08-18 02:12:31,15.08842427,0.0001197,53.2165,256.8423,103.9525,256.16,5.57e-05,5.99e-06,0.0,0 STARLINK-4396,1 53637U 22104BB  24231.09203189  .00000599  00000-0  55700-4 0  9991,2 53637  53.2165 256.8423 0001197 103.9525 256.1600 15.08842427109361,6917.873,95.437,540.566,538.91,0.0
53637.0,STARLINK-4396,PAYLOAD,2024-08-18 05:23:17,15.08841834,0.0001177,53.2163,256.2473,105.5604,254.5518,4.2789e-05,3.93e-06,0.0,0 STARLINK-4396,1 53637U 22104BB  24231.22451164  .00000393  00000-0  42789-4 0  9999,2 53637  53.2163 256.2473 0001177 105.5604 254.5518 15.08841834110400,6917.875,95.437,540.554,538.926,0.0
53637.0,STARLINK-4396,PAYLOAD,2024-08-18 11:44:50,15.08842128,0.0001157,53.2158,255.0568,107.0459,253.066,4.4e-05,4.13e-06,0.0,0 STARLINK-4396,1 53637U 22104BB  24231.48946986  .00000413  00000-0  44000-4 0  9999,2 53637  53.2158 255.0568 0001157 107.0459 253.0660 15.08842128110442,6917.874,95.437,540.539,538.938,0.0
53637.0,STARLINK-4396,PAYLOAD,2024-08-19 00:27:55,15.08837168,0.0001154,53.2156,252.6775,103.2166,256.8955,2.2319e-06,-2.52e-06,0.0,0 STARLINK-4396,1 53637U 22104BB  24232.01939426 -.00000252  00000-0  22319-5 0  9992,2 53637  53.2156 252.6775 0001154 103.2166 256.8955 15.08837168109504,6917.889,95.438,540.552,538.956,0.0
53637.0,STARLINK-4396,PAYLOAD,2024-08-19 13:11:00,15.08837847,0.0001074,53.2155,250.2987,87.2277,272.8838,-2.1614e-06,-3.22e-06,0.0,0 STARLINK-4396,1 53637U 22104BB  24232.54931474 -.00000322  00000-0 -21614-5 0  9991,2 53637  53.2155 250.2987 0001074  87.2277 272.8838 15.08837847110602,6917.887,95.438,540.495,539.009,0.0
53637.0,STARLINK-4396,PAYLOAD,2024-08-20 05:04:52,15.0883684,0.000107,53.2154,247.3248,84.8582,275.2532,4.02e-05,3.52e-06,0.0,0 STARLINK-4396,1 53637U 22104BB  24233.21171585  .00000352  00000-0  40200-4 0  9997,2 53637  53.2154 247.3248 0001070  84.8582 275.2532 15.08836840109682,6917.89,95.438,540.495,539.015,0.0
53637.0,STARLINK-4396,PAYLOAD,2024-08-20 08:15:38,15.08839585,0.0001064,53.2154,246.7303,84.9657,275.1456,6.1408e-05,6.9e-06,0.0,0 STARLINK-4396,1 53637U 22104BB  24233.34419353  .00000690  00000-0  61408-4 0  9997,2 53637  53.2154 246.7303 0001064  84.9657 275.1456 15.08839585110724,6917.882,95.438,540.483,539.011,0.0
53637.0,STARLINK-4396,PAYLOAD,2024-08-21 08:06:25,15.08841229,0.0001081,53.2154,242.27,83.6514,276.4601,0.00011761,1.585e-05,0.0,0 STARLINK-4396,1 53637U 22104BB  24234.33779247  .00001585  00000-0  11761-3 0  9998,2 53637  53.2154 242.2700 0001081  83.6514 276.4601 15.08841229109859,6917.877,95.437,540.489,538.994,0.0
